NORAD_CAT_ID,OBJECT_NAME,OBJECT_TYPE,EPOCH,MEAN_MOTION,ECCENTRICITY,INCLINATION,RA_OF_ASC_NODE,ARG_OF_PERICENTER,MEAN_ANOMALY,BSTAR,MEAN_MOTION_DOT,MEAN_MOTION_DDOT,TLE_LINE0,TLE_LINE1,TLE_LINE2,SEMIMAJOR_AXIS,PERIOD,APOGEE,PERIGEE,DECAYED
49423.0,STARLINK-3149,PAYLOAD,2023-02-10 17:03:39,15.0883871,0.0001198,53.2128,230.3766,76.7031,283.4095,0.00018441,2.648e-05,0.0,0 STARLINK-3149,1 49423U 21104R   23041.71087302  .00002648  00000-0  18441-3 0  9999,2 49423  53.2128 230.3766 0001198  76.7031 283.4095 15.08838710 69091,6917.884,95.438,540.578,538.921,0.0
49423.0,STARLINK-3149,PAYLOAD,2023-02-10 20:14:25,15.0884192,0.000114,53.2124,229.7816,76.6978,283.4142,0.00018839,2.712e-05,0.0,0 STARLINK-3149,1 49423U 21104R   23041.84335143  .00002712  00000-0  18839-3 0  9995,2 49423  53.2124 229.7816 0001140  76.6978 283.4142 15.08841920 70194,6917.875,95.437,540.528,538.951,0.0
49423.0,STARLINK-3149,PAYLOAD,2023-02-11 20:05:12,15.08844309,0.0001138,53.2138,225.3206,86.1839,273.9283,0.00011465,1.538e-05,0.0,0 STARLINK-3149,1 49423U 21104R   23042.83695107  .00001538  00000-0  11465-3 0  9997,2 49423  53.2138 225.3206 0001138  86.1839 273.9283 15.08844309 69263,6917.867,95.437,540.519,538.945,0.0
49423.0,STARLINK-3149,PAYLOAD,2023-02-12 05:37:31,15.08839897,9.94e-05,53.2138,223.5339,74.9808,285.1295,8.1885e-05,1.016e-05,0.0,0 STARLINK-3149,1 49423U 21104R   23043.23439205  .00001016  00000-0  81885-4 0  9992,2 49423  53.2138 223.5339 0000994  74.9808 285.1295 15.08839897 70402,6917.881,95.438,540.433,539.058,0.0
49423.0,STARLINK-3149,PAYLOAD,2023-02-12 11:59:04,15.08838673,0.0001135,53.2127,222.3457,81.8972,278.2149,8.6214e-05,1.084e-05,0.0,0 STARLINK-3149,1 49423U 21104R   23043.49935419  .00001084  00000-0  86214-4 0  9994,2 49423  53.2127 222.3457 0001135  81.8972 278.2149 15.08838673 69360,6917.884,95.438,540.535,538.964,0.0
49423.0,STARLINK-3149,PAYLOAD,2023-02-13 11:49:51,15.08835435,7.63e-05,53.2132,217.8846,91.9099,268.198,-6.3111e-06,-3.88e-06,0.0,0 STARLINK-3149,1 49423U 21104R   23044.49295607 -.00000388  00000-0 -63111-5 0  9993,2 49423  53.2132 217.8846 0000763  91.9099 268.1980 15.08835435 70596,6917.894,95.438,540.287,539.232,0.0
49423.0,STARLINK-3149,PAYLOAD,2023-02-13 21:22:09,15.08844573,9.28e-05,53.2131,216.1003,91.5511,268.5587,0.00013494,1.861e-05,0.0,0 STARLINK-3149,1 49423U 21104R   23044.89039258  .00001861  00000-0  13494-3 0  9997,2 49423  53.2131 216.1003 0000928  91.5511 268.5587 15.08844573 70657,6917.866,95.437,540.373,539.089,0.0
49423.0,STARLINK-3149,PAYLOAD,2023-02-14 11:40:38,15.08839459,9.7e-05,53.2125,213.4237,95.4494,264.6609,0.00014146,1.964e-05,0.0,0 STARLINK-3149,1 49423U 21104R   23045.48655623  .00001964  00000-0  14146-3 0  9992,2 49423  53.2125 213.4237 0000970  95.4494 264.6609 15.08839459 70748,6917.882,95.438,540.418,539.076,0.0
49423.0,STARLINK-3149,PAYLOAD,2023-02-14 18:02:10,15.08845649,9.58e-05,53.2115,212.2348,91.3431,268.7671,0.00021341,3.111e-05,0.0,0 STARLINK-3149,1 49423U 21104R   23045.75151302  .00003111  00000-0  21341-3 0  9998,2 49423  53.2115 212.2348 0000958  91.3431 268.7671 15.08845649 69705,6917.863,95.437,540.391,539.065,0.0
49423.0,STARLINK-3149,PAYLOAD,2023-02-15 11:31:25,15.08838202,9.92e-05,53.211,208.9638,95.6942,264.4163,0.00010899,1.447e-05,0.0,0 STARLINK-3149,1 49423U 21104R   23046.48015615  .00001447  00000-0  10899-3 0  9991,2 49423  53.2110 208.9638 0000992  95.6942 264.4163 15.08838202 69814,6917.886,95.438,540.437,539.065,0.0
49423.0,STARLINK-3149,PAYLOAD,2023-02-15 17:52:57,15.08850359,0.0001175,53.2127,207.7746,100.7933,259.3192,0.00021144,3.08e-05,0.0,0 STARLINK-3149,1 49423U 21104R   23046.74511052  .00003080  00000-0  21144-3 0  9996,2 49423  53.2127 207.7746 0001175 100.7933 259.3192 15.08850359 70938,6917.849,95.437,540.527,538.901,0.0
49423.0,STARLINK-3149,PAYLOAD,2023-02-16 11:22:12,15.08844656,8.26e-05,53.2119,204.5026,81.9535,278.1551,6.5472e-05,7.55e-06,0.0,0 STARLINK-3149,1 49423U 21104R   23047.47375044  .00000755  00000-0  65472-4 0  9995,2 49423  53.2119 204.5026 0000826  81.9535 278.1551 15.08844656 71049,6917.866,95.437,540.303,539.16,0.0
49423.0,STARLINK-3149,PAYLOAD,2023-02-16 19:19:07,15.08848614,9.25e-05,53.212,203.0156,85.9165,274.1933,0.00011183,1.493e-05,0.0,0 STARLINK-3149,1 49423U 21104R   23047.80494716  .00001493  00000-0  11183-3 0  9999,2 49423  53.2120 203.0156 0000925  85.9165 274.1933 15.08848614 70016,6917.854,95.437,540.359,539.079,0.0
49423.0,STARLINK-3149,PAYLOAD,2023-02-17 12:48:22,15.08832759,0.0001185,53.2126,199.7446,85.5923,274.5204,-3.5992e-05,-8.6e-06,0.0,0 STARLINK-3149,1 49423U 21104R   23048.53359933 -.00000860  00000-0 -35992-4 0  9995,2 49423  53.2126 199.7446 0001185  85.5923 274.5204 15.08832759 71202,6917.903,95.438,540.587,538.948,0.0
49423.0,STARLINK-3149,PAYLOAD,2023-02-18 12:39:10,15.08830537,0.0001265,53.2125,195.2837,85.9236,274.1901,0.00011069,1.474e-05,0.0,0 STARLINK-3149,1 49423U 21104R   23049.52720437  .00001474  00000-0  11069-3 0  9994,2 49423  53.2125 195.2837 0001265  85.9236 274.1901 15.08830537 70274,6917.909,95.438,540.649,538.899,0.0
49423.0,STARLINK-3149,PAYLOAD,2023-02-18 19:00:42,15.0883637,0.0001189,53.2125,194.0939,89.2879,270.8249,0.00014495,2.02e-05,0.0,0 STARLINK-3149,1 49423U 21104R   23049.79216262  .00002020  00000-0  14495-3 0  9993,2 49423  53.2125 194.0939 0001189  89.2879 270.8249 15.08836370 71392,6917.891,95.438,540.579,538.934,0.0
49423.0,STARLINK-3149,PAYLOAD,2023-02-19 14:05:20,15.08844219,0.0001151,53.213,190.5255,87.5592,272.5532,0.00027068,4.023e-05,0.0,0 STARLINK-3149,1 49423U 21104R   23050.58704211  .00004023  00000-0  27068-3 0  9993,2 49423  53.2130 190.5255 0001151  87.5592 272.5532 15.08844219 70431,6917.867,95.437,540.529,538.936,0.0
49423.0,STARLINK-3149,PAYLOAD,2023-02-20 02:48:25,15.08847042,0.0001127,53.2133,188.1469,82.442,277.67,0.00021478,3.133e-05,0.0,0 STARLINK-3149,1 49423U 21104R   23051.11696034  .00003133  00000-0  21478-3 0  9996,2 49423  53.2133 188.1469 0001127  82.4420 277.6700 15.08847042 71599,6917.859,95.437,540.504,538.944,0.0
49423.0,STARLINK-3149,PAYLOAD,2023-02-20 13:56:07,15.08839057,0.0001185,53.2132,186.0652,84.3454,275.7673,7.8793e-05,9.66e-06,0.0,0 STARLINK-3149,1 49423U 21104R   23051.58064438  .00000966  00000-0  78793-4 0  9998,2 49423  53.2132 186.0652 0001185  84.3454 275.7673 15.08839057 71664,6917.883,95.438,540.568,538.929,0.0
49423.0,STARLINK-3149,PAYLOAD,2023-02-20 18:42:16,15.0884779,0.0001182,53.2133,185.1724,88.9866,271.1261,0.00017885,2.56e-05,0.0,0 STARLINK-3149,1 49423U 21104R   23051.77935912  .00002560  00000-0  17885-3 0  9999,2 49423  53.2133 185.1724 0001182  88.9866 271.1261 15.08847790 71698,6917.857,95.437,540.539,538.904,0.0
49423.0,STARLINK-3149,PAYLOAD,2023-02-21 12:11:31,15.08845532,0.0001214,53.2128,181.9009,95.1735,264.9396,9.5534e-05,1.233e-05,0.0,0 STARLINK-3149,1 49423U 21104R   23052.50799876  .00001233  00000-0  95534-4 0  9992,2 49423  53.2128 181.9009 0001214  95.1735 264.9396 15.08845532 70727,6917.863,95.437,540.568,538.889,0.0
49423.0,STARLINK-3149,PAYLOAD,2023-02-21 18:33:02,15.08858187,0.0001159,53.2131,180.7123,88.2061,271.9063,0.0002244,3.287e-05,0.0,0 STARLINK-3149,1 49423U 21104R   23052.77295136  .00003287  00000-0  22440-3 0  9997,2 49423  53.2131 180.7123 0001159  88.2061 271.9063 15.08858187 70761,6917.825,95.436,540.492,538.888,0.0
49423.0,STARLINK-3149,PAYLOAD,2023-02-22 00:54:36,15.08843568,0.000151,53.2138,179.5217,87.7285,272.388,4.0963e-05,3.64e-06,0.0,0 STARLINK-3149,1 49423U 21104R   23053.03791782  .00000364  00000-0  40963-4 0  9999,2 49423  53.2138 179.5217 0001510  87.7285 272.3880 15.08843568 71884,6917.869,95.437,540.779,538.69,0.0
49423.0,STARLINK-3149,PAYLOAD,2023-02-22 12:02:18,15.08841701,0.0001358,53.213,177.4415,103.4777,256.6366,5.7413e-05,6.26e-06,0.0,0 STARLINK-3149,1 49423U 21104R   23053.50159749  .00000626  00000-0  57413-4 0  9991,2 49423  53.2130 177.4415 0001358 103.4777 256.6366 15.08841701 70874,6917.875,95.437,540.68,538.801,0.0
49423.0,STARLINK-3149,PAYLOAD,2023-02-22 18:23:50,15.08849964,0.0001382,53.2136,176.2522,92.5349,267.5801,0.00017167,2.446e-05,0.0,0 STARLINK-3149,1 49423U 21104R   23053.76655398  .00002446  00000-0  17167-3 0  9993,2 49423  53.2136 176.2522 0001382  92.5349 267.5801 15.08849964 70915,6917.85,95.437,540.671,538.759,0.0
49423.0,STARLINK-3149,PAYLOAD,2023-02-23 05:31:33,15.08828406,0.0001254,53.2126,174.1704,87.7012,272.4124,-0.00015787,-2.799e-05,0.0,0 STARLINK-3149,1 49423U 21104R   23054.23024308 -.00002799  00000-0 -15787-3 0  9996,2 49423  53.2126 174.1704 0001254  87.7012 272.4124 15.08828406 72063,6917.916,95.438,540.648,538.913,0.0
49423.0,STARLINK-3149,PAYLOAD,2023-02-23 11:53:05,15.08836456,0.0001162,53.2131,172.9811,95.2165,264.8959,8.5884e-06,-1.51e-06,0.0,0 STARLINK-3149,1 49423U 21104R   23054.49520033 -.00000151  00000-0  85884-5 0  9996,2 49423  53.2131 172.9811 0001162  95.2165 264.8959 15.08836456 71025,6917.891,95.438,540.56,538.952,0.0
49423.0,STARLINK-3149,PAYLOAD,2023-02-23 13:28:28,15.08838536,0.0001202,53.2131,172.6837,97.3156,262.7972,0.00023431,3.443e-05,0.0,0 STARLINK-3149,1 49423U 21104R   23054.56144043  .00003443  00000-0  23431-3 0  9991,2 49423  53.2131 172.6837 0001202  97.3156 262.7972 15.08838536 72112,6917.885,95.438,540.581,538.918,0.0
49423.0,STARLINK-3149,PAYLOAD,2023-02-24 06:57:43,15.08833487,0.0001203,53.2127,169.4136,96.1977,263.9152,0.00037425,5.672e-05,0.0,0 STARLINK-3149,1 49423U 21104R   23055.29008572  .00005672  00000-0  37425-3 0  9992,2 49423  53.2127 169.4136 0001203  96.1977 263.9152 15.08833487 72227,6917.9,95.438,540.598,538.933,0.0
49423.0,STARLINK-3149,PAYLOAD,2023-02-24 11:43:52,15.08832771,0.0001203,53.2124,168.5214,97.101,263.0119,0.00016484,2.336e-05,0.0,0 STARLINK-3149,1 49423U 21104R   23055.48880620  .00002336  00000-0  16484-3 0  9991,2 49423  53.2124 168.5214 0001203  97.1010 263.0119 15.08832771 71172,6917.902,95.438,540.6,538.935,0.0
